{
  "type": "FeatureCollection",
  "features": [
    {
      "type": "Feature",
      "properties": {
        "norad_id": 35959,
        "name": "COSMOS 2251 DEB",
        "group": "cosmos-2251-debris",
        "lat": 18.069417489729283,
        "lon": 114.11425310833371,
        "alt_km": 790.3543429818019,
        "timestamp": "2025-12-19T14:48:36.645100+00:00",
        "meta_object_name": "COSMOS 2251 DEB",
        "meta_object_id": "1993-036AUZ",
        "meta_epoch": "2025-12-18T02:54:20.383200",
        "meta_mean_motion": 14.34139826,
        "meta_eccentricity": 0.00217869,
        "meta_inclination": 74.0326,
        "meta_ra_of_asc_node": 302.2118,
        "meta_arg_of_pericenter": 21.1868,
        "meta_mean_anomaly": 339.0181,
        "meta_ephemeris_type": 0,
        "meta_classification_type": "U",
        "meta_norad_cat_id": 35959,
        "meta_element_set_no": 999,
        "meta_rev_at_epoch": 85005,
        "meta_bstar": 0.00010326625,
        "meta_mean_motion_dot": 2.64e-06,
        "meta_mean_motion_ddot": 0,
        "tle_line1": "1 35959U 93036AUZ 25352.12106925  .00000264  00000+0  10327-3 0  9992",
        "tle_line2": "2 35959  74.0326 302.2118 0021786  21.1868 339.0181 14.34139826850056"
      },
      "geometry": {
        "type": "Point",
        "coordinates": [
          114.11425310833371,
          18.069417489729283
        ]
      }
    },
    {
      "type": "Feature",
      "properties": {
        "norad_id": 35961,
        "name": "COSMOS 2251 DEB",
        "group": "cosmos-2251-debris",
        "lat": 70.68589889168305,
        "lon": -43.28108826666996,
        "alt_km": 739.8364709320876,
        "timestamp": "2025-12-19T14:48:36.645110+00:00",
        "meta_object_name": "COSMOS 2251 DEB",
        "meta_object_id": "1993-036AVB",
        "meta_epoch": "2025-12-18T21:15:12.372768",
        "meta_mean_motion": 14.05418101,
        "meta_eccentricity": 0.01915239,
        "meta_inclination": 73.9239,
        "meta_ra_of_asc_node": 193.3704,
        "meta_arg_of_pericenter": 125.5075,
        "meta_mean_anomaly": 236.4097,
        "meta_ephemeris_type": 0,
        "meta_classification_type": "U",
        "meta_norad_cat_id": 35961,
        "meta_element_set_no": 999,
        "meta_rev_at_epoch": 62768,
        "meta_bstar": 0.0011788636,
        "meta_mean_motion_dot": 2.232e-05,
        "meta_mean_motion_ddot": 0,
        "tle_line1": "1 35961U 93036AVB 25352.88555987  .00002232  00000+0  11789-2 0  9993",
        "tle_line2": "2 35961  73.9239 193.3704 0191523 125.5075 236.4097 14.05418101627687"
      },
      "geometry": {
        "type": "Point",
        "coordinates": [
          -43.28108826666996,
          70.68589889168305
        ]
      }
    },
    {
      "type": "Feature",
      "properties": {
        "norad_id": 35979,
        "name": "COSMOS 2251 DEB",
        "group": "cosmos-2251-debris",
        "lat": -72.64689241951865,
        "lon": 111.52003824132558,
        "alt_km": 654.4175243673026,
        "timestamp": "2025-12-19T14:48:36.645120+00:00",
        "meta_object_name": "COSMOS 2251 DEB",
        "meta_object_id": "1993-036AVV",
        "meta_epoch": "2025-12-17T22:37:43.321728",
        "meta_mean_motion": 14.74704209,
        "meta_eccentricity": 0.00591052,
        "meta_inclination": 74.0093,
        "meta_ra_of_asc_node": 228.2039,
        "meta_arg_of_pericenter": 359.1807,
        "meta_mean_anomaly": 19.9586,
        "meta_ephemeris_type": 0,
        "meta_classification_type": "U",
        "meta_norad_cat_id": 35979,
        "meta_element_set_no": 999,
        "meta_rev_at_epoch": 88710,
        "meta_bstar": 0.00063181032,
        "meta_mean_motion_dot": 4.31e-05,
        "meta_mean_motion_ddot": 0,
        "tle_line1": "1 35979U 93036AVV 25351.94286252  .00004310  00000+0  63181-3 0  9997",
        "tle_line2": "2 35979  74.0093 228.2039 0059105 359.1807  19.9586 14.74704209887107"
      },
      "geometry": {
        "type": "Point",
        "coordinates": [
          111.52003824132558,
          -72.64689241951865
        ]
      }
    },
    {
      "type": "Feature",
      "properties": {
        "norad_id": 35980,
        "name": "COSMOS 2251 DEB",
        "group": "cosmos-2251-debris",
        "lat": 54.159388429753925,
        "lon": -94.07661324730101,
        "alt_km": 708.8122355505484,
        "timestamp": "2025-12-19T14:48:36.645131+00:00",
        "meta_object_name": "COSMOS 2251 DEB",
        "meta_object_id": "1993-036AVW",
        "meta_epoch": "2025-12-15T01:39:40.666752",
        "meta_mean_motion": 14.5933919,
        "meta_eccentricity": 0.00539648,
        "meta_inclination": 73.9111,
        "meta_ra_of_asc_node": 118.2073,
        "meta_arg_of_pericenter": 252.458,
        "meta_mean_anomaly": 107.0684,
        "meta_ephemeris_type": 0,
        "meta_classification_type": "U",
        "meta_norad_cat_id": 35980,
        "meta_element_set_no": 999,
        "meta_rev_at_epoch": 61520,
        "meta_bstar": 0.00098659578,
        "meta_mean_motion_dot": 4.733e-05,
        "meta_mean_motion_ddot": 0,
        "tle_line1": "1 35980U 93036AVW 25349.06922068  .00004733  00000+0  98660-3 0  9990",
        "tle_line2": "2 35980  73.9111 118.2073 0053964 252.4580 107.0684 14.59339190615208"
      },
      "geometry": {
        "type": "Point",
        "coordinates": [
          -94.07661324730101,
          54.159388429753925
        ]
      }
    },
    {
      "type": "Feature",
      "properties": {
        "norad_id": 35982,
        "name": "COSMOS 2251 DEB",
        "group": "cosmos-2251-debris",
        "lat": 45.45251346549475,
        "lon": 136.8822156935408,
        "alt_km": 682.8324426711524,
        "timestamp": "2025-12-19T14:48:36.645141+00:00",
        "meta_object_name": "COSMOS 2251 DEB",
        "meta_object_id": "1993-036AVY",
        "meta_epoch": "2025-12-19T06:00:25.170912",
        "meta_mean_motion": 14.62785909,
        "meta_eccentricity": 0.0064351,
        "meta_inclination": 74.058,
        "meta_ra_of_asc_node": 334.4654,
        "meta_arg_of_pericenter": 38.8485,
        "meta_mean_anomaly": 321.7281,
        "meta_ephemeris_type": 0,
        "meta_classification_type": "U",
        "meta_norad_cat_id": 35982,
        "meta_element_set_no": 999,
        "meta_rev_at_epoch": 86261,
        "meta_bstar": 0.00043725979,
        "meta_mean_motion_dot": 2.267e-05,
        "meta_mean_motion_ddot": 0,
        "tle_line1": "1 35982U 93036AVY 25353.25029133  .00002267  00000+0  43726-3 0  9992",
        "tle_line2": "2 35982  74.0580 334.4654 0064351  38.8485 321.7281 14.62785909862615"
      },
      "geometry": {
        "type": "Point",
        "coordinates": [
          136.8822156935408,
          45.45251346549475
        ]
      }
    },
    {
      "type": "Feature",
      "properties": {
        "norad_id": 35987,
        "name": "COSMOS 2251 DEB",
        "group": "cosmos-2251-debris",
        "lat": -1.3167888091398698,
        "lon": -46.532969065291944,
        "alt_km": 744.3946802349237,
        "timestamp": "2025-12-19T14:48:36.645151+00:00",
        "meta_object_name": "COSMOS 2251 DEB",
        "meta_object_id": "1993-036AWD",
        "meta_epoch": "2025-12-14T05:02:56.141664",
        "meta_mean_motion": 14.43139491,
        "meta_eccentricity": 0.00459797,
        "meta_inclination": 73.9997,
        "meta_ra_of_asc_node": 323.9049,
        "meta_arg_of_pericenter": 89.0828,
        "meta_mean_anomaly": 271.5596,
        "meta_ephemeris_type": 0,
        "meta_classification_type": "U",
        "meta_norad_cat_id": 35987,
        "meta_element_set_no": 999,
        "meta_rev_at_epoch": 61086,
        "meta_bstar": 0.001182332,
        "meta_mean_motion_dot": 3.997e-05,
        "meta_mean_motion_ddot": 0,
        "tle_line1": "1 35987U 93036AWD 25348.21037201  .00003997  00000+0  11823-2 0  9995",
        "tle_line2": "2 35987  73.9997 323.9049 0045979  89.0828 271.5596 14.43139491610862"
      },
      "geometry": {
        "type": "Point",
        "coordinates": [
          -46.532969065291944,
          -1.3167888091398698
        ]
      }
    },
    {
      "type": "Feature",
      "properties": {
        "norad_id": 35989,
        "name": "COSMOS 2251 DEB",
        "group": "cosmos-2251-debris",
        "lat": -67.80336301489962,
        "lon": 135.73271003002563,
        "alt_km": 776.8364051252856,
        "timestamp": "2025-12-19T14:48:36.645161+00:00",
        "meta_object_name": "COSMOS 2251 DEB",
        "meta_object_id": "1993-036AWF",
        "meta_epoch": "2025-12-15T12:43:44.525280",
        "meta_mean_motion": 14.3710632,
        "meta_eccentricity": 0.00221302,
        "meta_inclination": 74.0379,
        "meta_ra_of_asc_node": 278.7,
        "meta_arg_of_pericenter": 359.7916,
        "meta_mean_anomaly": 0.3224,
        "meta_ephemeris_type": 0,
        "meta_classification_type": "U",
        "meta_norad_cat_id": 35989,
        "meta_element_set_no": 999,
        "meta_rev_at_epoch": 87219,
        "meta_bstar": 0.00023403924,
        "meta_mean_motion_dot": 6.71e-06,
        "meta_mean_motion_ddot": 0,
        "tle_line1": "1 35989U 93036AWF 25349.53037645  .00000671  00000+0  23404-3 0  9990",
        "tle_line2": "2 35989  74.0379 278.7000 0022130 359.7916   0.3224 14.37106320872193"
      },
      "geometry": {
        "type": "Point",
        "coordinates": [
          135.73271003002563,
          -67.80336301489962
        ]
      }
    }
  ]
}